start=new Date('2023-03-03T00:00:00.000Z').valueOf();
sats=[{"CLASSIFICATION_TYPE":"U","CENTER_NAME":"EARTH","ARG_OF_PERICENTER":"147.3298","PERIAPSIS":"538.951","TLE_LINE2":"2 53566  53.2180 328.5264 0001054 147.3298 212.7759 15.08861313 30529","LAUNCH_DATE":"2022-08-19","RCS_SIZE":"LARGE","OBJECT_NAME":"STARLINK-4576","INCLINATION":"53.2180","TIME_SYSTEM":"UTC","REV_AT_EPOCH":"3052","ECCENTRICITY":"0.00010540","MEAN_MOTION_DDOT":"0.0000000000000","FILE":"3849487","ELEMENT_SET_NO":"999","MEAN_ELEMENT_THEORY":"SGP4","NORAD_CAT_ID":"53566","APOAPSIS":"540.409","SEMIMAJOR_AXIS":"6917.815","COUNTRY_CODE":"US","RA_OF_ASC_NODE":"328.5264","EPOCH":"2023-03-02T01:15:37.747008","MEAN_ANOMALY":"212.7759","OBJECT_ID":"2022-101AR","DECAY_DATE":null,"GP_ID":"227364648","MEAN_MOTION":"15.08861313","REF_FRAME":"TEME","MEAN_MOTION_DOT":"0.00027511","EPHEMERIS_TYPE":"0","OBJECT_TYPE":"PAYLOAD","TLE_LINE1":"1 53566U 22101AR  23061.05252022  .00027511  00000-0  17389-2 0  9997","SITE":"AFETR","PERIOD":"95.436","BSTAR":"0.00173890000000"},{"FILE":"3849487","MEAN_ELEMENT_THEORY":"SGP4","NORAD_CAT_ID":"53567","ELEMENT_SET_NO":"999","CLASSIFICATION_TYPE":"U","ARG_OF_PERICENTER":"67.8917","CENTER_NAME":"EARTH","OBJECT_NAME":"STARLINK-4585","RCS_SIZE":"LARGE","INCLINATION":"53.2170","TIME_SYSTEM":"UTC","REV_AT_EPOCH":"2984","ECCENTRICITY":"0.00010650","MEAN_MOTION_DDOT":"0.0000000000000","PERIAPSIS":"538.949","TLE_LINE2":"2 53567  53.2170 328.2995 0001065  67.8917 292.2188 15.08859606 29847","LAUNCH_DATE":"2022-08-19","EPHEMERIS_TYPE":"0","REF_FRAME":"TEME","MEAN_MOTION_DOT":"0.00037733","SITE":"AFETR","TLE_LINE1":"1 53567U 22101AS  23061.12982275  .00037733  00000-0  23750-2 0  9992","PERIOD":"95.436","BSTAR":"0.00237500000000","OBJECT_TYPE":"PAYLOAD","MEAN_ANOMALY":"292.2188","OBJECT_ID":"2022-101AS","GP_ID":"227364405","DECAY_DATE":null,"MEAN_MOTION":"15.08859606","APOAPSIS":"540.422","COUNTRY_CODE":"US","SEMIMAJOR_AXIS":"6917.820","RA_OF_ASC_NODE":"328.2995","EPOCH":"2023-03-02T03:06:56.685600"},{"MEAN_MOTION_DDOT":"0.0000000000000","ECCENTRICITY":"0.00011730","REV_AT_EPOCH":"3054","INCLINATION":"53.2190","RCS_SIZE":"LARGE","OBJECT_NAME":"STARLINK-4583","TIME_SYSTEM":"UTC","LAUNCH_DATE":"2022-08-19","TLE_LINE2":"2 53568  53.2190 327.8642 0001173  86.5718 273.5409 15.08858430 30542","PERIAPSIS":"538.878","ARG_OF_PERICENTER":"86.5718","CENTER_NAME":"EARTH","CLASSIFICATION_TYPE":"U","NORAD_CAT_ID":"53568","MEAN_ELEMENT_THEORY":"SGP4","ELEMENT_SET_NO":"999","FILE":"3849487","MEAN_MOTION":"15.08858430","DECAY_DATE":null,"GP_ID":"227363647","OBJECT_ID":"2022-101AT","MEAN_ANOMALY":"273.5409","EPOCH":"2023-03-02T04:10:26.460768","RA_OF_ASC_NODE":"327.8642","SEMIMAJOR_AXIS":"6917.824","COUNTRY_CODE":"US","APOAPSIS":"540.501","BSTAR":"-0.00003275100000","PERIOD":"95.436","TLE_LINE1":"1 53568U 22101AT  23061.17391737 -.00000809  00000-0 -32751-4 0  9994","SITE":"AFETR","OBJECT_TYPE":"PAYLOAD","EPHEMERIS_TYPE":"0","MEAN_MOTION_DOT":"-0.00000809","REF_FRAME":"TEME"},{"ELEMENT_SET_NO":"999","MEAN_ELEMENT_THEORY":"SGP4","NORAD_CAT_ID":"53569","FILE":"3849487","PERIAPSIS":"538.568","LAUNCH_DATE":"2022-08-19","TLE_LINE2":"2 53569  53.2178 325.5784 0001626  45.4167 314.6958 15.08857239 30605","RCS_SIZE":"LARGE","TIME_SYSTEM":"UTC","INCLINATION":"53.2178","OBJECT_NAME":"STARLINK-4582","REV_AT_EPOCH":"3060","ECCENTRICITY":"0.00016260","MEAN_MOTION_DDOT":"0.0000000000000","CLASSIFICATION_TYPE":"U","ARG_OF_PERICENTER":"45.4167","CENTER_NAME":"EARTH","OBJECT_TYPE":"PAYLOAD","SITE":"AFETR","TLE_LINE1":"1 53569U 22101AU  23061.71860939  .00014171  00000-0  90624-3 0  9997","BSTAR":"0.00090624000000","PERIOD":"95.436","REF_FRAME":"TEME","MEAN_MOTION_DOT":"0.00014171","EPHEMERIS_TYPE":"0","APOAPSIS":"540.818","COUNTRY_CODE":"US","SEMIMAJOR_AXIS":"6917.828","RA_OF_ASC_NODE":"325.5784","EPOCH":"2023-03-02T17:14:47.851296","MEAN_ANOMALY":"314.6958","OBJECT_ID":"2022-101AU","DECAY_DATE":null,"GP_ID":"227363897","MEAN_MOTION":"15.08857239"},{"APOAPSIS":"540.297","COUNTRY_CODE":"US","SEMIMAJOR_AXIS":"6917.817","RA_OF_ASC_NODE":"328.1852","EPOCH":"2023-03-02T02:40:23.136960","MEAN_ANOMALY":"224.5195","OBJECT_ID":"2022-101AV","DECAY_DATE":null,"GP_ID":"227364155","MEAN_MOTION":"15.08860802","REF_FRAME":"TEME","MEAN_MOTION_DOT":"0.00029286","EPHEMERIS_TYPE":"0","OBJECT_TYPE":"PAYLOAD","TLE_LINE1":"1 53570U 22101AV  23061.11137890  .00029286  00000-0  18495-2 0  9994","SITE":"AFETR","PERIOD":"95.436","BSTAR":"0.00184950000000","CLASSIFICATION_TYPE":"U","CENTER_NAME":"EARTH","ARG_OF_PERICENTER":"135.5869","PERIAPSIS":"539.067","TLE_LINE2":"2 53570  53.2182 328.1852 0000889 135.5869 224.5195 15.08860802 30531","LAUNCH_DATE":"2022-08-19","RCS_SIZE":"LARGE","INCLINATION":"53.2182","OBJECT_NAME":"STARLINK-4550","TIME_SYSTEM":"UTC","REV_AT_EPOCH":"3053","ECCENTRICITY":"0.00008890","MEAN_MOTION_DDOT":"0.0000000000000","FILE":"3849487","ELEMENT_SET_NO":"999","MEAN_ELEMENT_THEORY":"SGP4","NORAD_CAT_ID":"53570"},{"PERIOD":"95.437","BSTAR":"-0.00011601000000","SITE":"AFETR","TLE_LINE1":"1 53571U 22101AW  23061.11505886 -.00002134  00000-0 -11601-3 0  9997","OBJECT_TYPE":"PAYLOAD","EPHEMERIS_TYPE":"0","MEAN_MOTION_DOT":"-0.00002134","REF_FRAME":"TEME","MEAN_MOTION":"15.08843458","GP_ID":"227364899","DECAY_DATE":null,"OBJECT_ID":"2022-101AW","MEAN_ANOMALY":"257.5290","EPOCH":"2023-03-02T02:45:41.085504","RA_OF_ASC_NODE":"328.2067","COUNTRY_CODE":"US","SEMIMAJOR_AXIS":"6917.870","APOAPSIS":"540.769","NORAD_CAT_ID":"53571","MEAN_ELEMENT_THEORY":"SGP4","ELEMENT_SET_NO":"999","FILE":"3849487","MEAN_MOTION_DDOT":"0.0000000000000","ECCENTRICITY":"0.00014950","REV_AT_EPOCH":"3053","INCLINATION":"53.2191","RCS_SIZE":"LARGE","OBJECT_NAME":"STARLINK-4584","TIME_SYSTEM":"UTC","TLE_LINE2":"2 53571  53.2191 328.2067 0001495 102.5869 257.5290 15.08843458 30539","LAUNCH_DATE":"2022-08-19","PERIAPSIS":"538.701","ARG_OF_PERICENTER":"102.5869","CENTER_NAME":"EARTH","CLASSIFICATION_TYPE":"U"},{"MEAN_ANOMALY":"267.2030","OBJECT_ID":"2022-101AX","DECAY_DATE":null,"GP_ID":"227363154","MEAN_MOTION":"15.08859110","APOAPSIS":"540.573","SEMIMAJOR_AXIS":"6917.822","COUNTRY_CODE":"US","RA_OF_ASC_NODE":"325.4273","EPOCH":"2023-03-02T16:39:01.230336","TLE_LINE1":"1 53572U 22101AX  23061.69376424  .00024397  00000-0  15449-2 0  9991","SITE":"AFETR","BSTAR":"0.00154490000000","PERIOD":"95.436","OBJECT_TYPE":"PAYLOAD","EPHEMERIS_TYPE":"0","REF_FRAME":"TEME","MEAN_MOTION_DOT":"0.00024397","RCS_SIZE":"LARGE","INCLINATION":"53.2160","OBJECT_NAME":"STARLINK-4555","TIME_SYSTEM":"UTC","REV_AT_EPOCH":"2993","ECCENTRICITY":"0.00012810","MEAN_MOTION_DDOT":"0.0000000000000","PERIAPSIS":"538.801","LAUNCH_DATE":"2022-08-19","TLE_LINE2":"2 53572  53.2160 325.4273 0001281  92.9109 267.2030 15.08859110 29930","CLASSIFICATION_TYPE":"U","ARG_OF_PERICENTER":"92.9109","CENTER_NAME":"EARTH","MEAN_ELEMENT_THEORY":"SGP4","NORAD_CAT_ID":"53572","ELEMENT_SET_NO":"999","FILE":"3849487"},{"OBJECT_TYPE":"PAYLOAD","BSTAR":"0.00023345000000","PERIOD":"95.439","SITE":"AFETR","TLE_LINE1":"1 53573U 22101AY  23061.70017638  .00003428  00000-0  23345-3 0  9990","REF_FRAME":"TEME","MEAN_MOTION_DOT":"0.00003428","EPHEMERIS_TYPE":"0","COUNTRY_CODE":"US","SEMIMAJOR_AXIS":"6917.935","APOAPSIS":"540.543","EPOCH":"2023-03-02T16:48:15.239232","RA_OF_ASC_NODE":"325.4615","OBJECT_ID":"2022-101AY","MEAN_ANOMALY":"246.5815","MEAN_MOTION":"15.08822120","GP_ID":"227363404","DECAY_DATE":null,"ELEMENT_SET_NO":"999","MEAN_ELEMENT_THEORY":"SGP4","NORAD_CAT_ID":"53573","FILE":"3849487","PERIAPSIS":"539.057","TLE_LINE2":"2 53573  53.2188 325.4615 0001074 113.5290 246.5815 15.08822120 29934","LAUNCH_DATE":"2022-08-19","REV_AT_EPOCH":"2993","RCS_SIZE":"LARGE","INCLINATION":"53.2188","OBJECT_NAME":"STARLINK-4547","TIME_SYSTEM":"UTC","MEAN_MOTION_DDOT":"0.0000000000000","ECCENTRICITY":"0.00010740","ARG_OF_PERICENTER":"113.5290","CENTER_NAME":"EARTH","CLASSIFICATION_TYPE":"U"},{"TLE_LINE1":"1 53574U 22101AZ  23061.75536033  .00024269  00000-0  15365-2 0  9999","SITE":"AFETR","BSTAR":"0.00153650000000","PERIOD":"95.436","OBJECT_TYPE":"PAYLOAD","EPHEMERIS_TYPE":"0","REF_FRAME":"TEME","MEAN_MOTION_DOT":"0.00024269","MEAN_ANOMALY":"256.1094","OBJECT_ID":"2022-101AZ","GP_ID":"227364649","DECAY_DATE":null,"MEAN_MOTION":"15.08868314","APOAPSIS":"540.435","SEMIMAJOR_AXIS":"6917.794","COUNTRY_CODE":"US","RA_OF_ASC_NODE":"325.1029","EPOCH":"2023-03-02T18:07:43.132512","MEAN_ELEMENT_THEORY":"SGP4","NORAD_CAT_ID":"53574","ELEMENT_SET_NO":"999","FILE":"3849487","RCS_SIZE":"LARGE","INCLINATION":"53.2161","TIME_SYSTEM":"UTC","OBJECT_NAME":"STARLINK-4559","REV_AT_EPOCH":"2994","ECCENTRICITY":"0.00011220","MEAN_MOTION_DDOT":"0.0000000000000","PERIAPSIS":"538.883","LAUNCH_DATE":"2022-08-19","TLE_LINE2":"2 53574  53.2161 325.1029 0001122 104.0023 256.1094 15.08868314 29947","CLASSIFICATION_TYPE":"U","ARG_OF_PERICENTER":"104.0023","CENTER_NAME":"EARTH"},{"NORAD_CAT_ID":"53575","MEAN_ELEMENT_THEORY":"SGP4","ELEMENT_SET_NO":"999","FILE":"3849487","MEAN_MOTION_DDOT":"0.0000000000000","ECCENTRICITY":"0.00013080","REV_AT_EPOCH":"3063","RCS_SIZE":"LARGE","TIME_SYSTEM":"UTC","INCLINATION":"53.2171","OBJECT_NAME":"STARLINK-4551","LAUNCH_DATE":"2022-08-19","TLE_LINE2":"2 53575  53.2171 325.1439 0001308  65.6851 294.4278 15.08851050 30637","PERIAPSIS":"538.807","ARG_OF_PERICENTER":"65.6851","CENTER_NAME":"EARTH","CLASSIFICATION_TYPE":"U","PERIOD":"95.437","BSTAR":"0.00129650000000","TLE_LINE1":"1 53575U 22101BA  23061.76273082  .00020412  00000-0  12965-2 0  9992","SITE":"AFETR","OBJECT_TYPE":"PAYLOAD","EPHEMERIS_TYPE":"0","MEAN_MOTION_DOT":"0.00020412","REF_FRAME":"TEME","MEAN_MOTION":"15.08851050","DECAY_DATE":null,"GP_ID":"227364406","OBJECT_ID":"2022-101BA","MEAN_ANOMALY":"294.4278","EPOCH":"2023-03-02T18:18:19.942848","RA_OF_ASC_NODE":"325.1439","SEMIMAJOR_AXIS":"6917.847","COUNTRY_CODE":"US","APOAPSIS":"540.616"}];
